{
  "type": "FeatureCollection",
  "features": [
    {
      "type": "Feature",
      "properties": {
        "norad_id": 30946,
        "name": "FENGYUN 1C DEB",
        "group": "fengyun-1c-debris",
        "lat": 30.356283244961404,
        "lon": -83.72381539530876,
        "alt_km": 713.0616859557094,
        "timestamp": "2025-12-02T10:50:47.553790+00:00",
        "meta_object_name": "FENGYUN 1C DEB",
        "meta_object_id": "1999-025BAL",
        "meta_epoch": "2025-11-28T06:54:24.657696",
        "meta_mean_motion": 14.4800194,
        "meta_eccentricity": 0.00890266,
        "meta_inclination": 99.039,
        "meta_ra_of_asc_node": 86.4765,
        "meta_arg_of_pericenter": 236.0797,
        "meta_mean_anomaly": 179.3207,
        "meta_ephemeris_type": 0,
        "meta_classification_type": "U",
        "meta_norad_cat_id": 30946,
        "meta_element_set_no": 999,
        "meta_rev_at_epoch": 98142,
        "meta_bstar": 0.00084294618,
        "meta_mean_motion_dot": 3.237e-05,
        "meta_mean_motion_ddot": 0,
        "tle_line1": "1 30946U 99025BAL 25332.28778539  .00003237  00000+0  84295-3 0  9996",
        "tle_line2": "2 30946  99.0390  86.4765 0089026 236.0797 179.3207 14.48001940981423"
      },
      "geometry": {
        "type": "Point",
        "coordinates": [
          -83.72381539530876,
          30.356283244961404
        ]
      }
    },
    {
      "type": "Feature",
      "properties": {
        "norad_id": 30947,
        "name": "FENGYUN 1C DEB",
        "group": "fengyun-1c-debris",
        "lat": -54.813985795456965,
        "lon": 33.12107929908067,
        "alt_km": 721.5452042830902,
        "timestamp": "2025-12-02T10:50:47.553801+00:00",
        "meta_object_name": "FENGYUN 1C DEB",
        "meta_object_id": "1999-025BAM",
        "meta_epoch": "2025-12-01T03:41:10.986432",
        "meta_mean_motion": 14.3800177,
        "meta_eccentricity": 0.00958788,
        "meta_inclination": 98.8087,
        "meta_ra_of_asc_node": 224.4953,
        "meta_arg_of_pericenter": 282.3771,
        "meta_mean_anomaly": 76.6697,
        "meta_ephemeris_type": 0,
        "meta_classification_type": "U",
        "meta_norad_cat_id": 30947,
        "meta_element_set_no": 999,
        "meta_rev_at_epoch": 98326,
        "meta_bstar": 0.00036480125,
        "meta_mean_motion_dot": 1.114e-05,
        "meta_mean_motion_ddot": 0,
        "tle_line1": "1 30947U 99025BAM 25335.15359938  .00001114  00000+0  36480-3 0  9999",
        "tle_line2": "2 30947  98.8087 224.4953 0095878 282.3771  76.6697 14.38001770983261"
      },
      "geometry": {
        "type": "Point",
        "coordinates": [
          33.12107929908067,
          -54.813985795456965
        ]
      }
    },
    {
      "type": "Feature",
      "properties": {
        "norad_id": 30949,
        "name": "FENGYUN 1C DEB",
        "group": "fengyun-1c-debris",
        "lat": -28.444245179627174,
        "lon": -24.167893013177355,
        "alt_km": 767.7544154888237,
        "timestamp": "2025-12-02T10:50:47.553811+00:00",
        "meta_object_name": "FENGYUN 1C DEB",
        "meta_object_id": "1999-025BAP",
        "meta_epoch": "2025-12-01T20:15:08.373024",
        "meta_mean_motion": 14.1402851,
        "meta_eccentricity": 0.0116886,
        "meta_inclination": 98.6974,
        "meta_ra_of_asc_node": 330.4839,
        "meta_arg_of_pericenter": 341.0642,
        "meta_mean_anomaly": 136.6624,
        "meta_ephemeris_type": 0,
        "meta_classification_type": "U",
        "meta_norad_cat_id": 30949,
        "meta_element_set_no": 999,
        "meta_rev_at_epoch": 96362,
        "meta_bstar": 0.00027588,
        "meta_mean_motion_dot": 5.16e-06,
        "meta_mean_motion_ddot": 0,
        "tle_line1": "1 30949U 99025BAP 25335.84384691  .00000516  00000+0  27588-3 0  9995",
        "tle_line2": "2 30949  98.6974 330.4839 0116886 341.0642 136.6624 14.14028510963620"
      },
      "geometry": {
        "type": "Point",
        "coordinates": [
          -24.167893013177355,
          -28.444245179627174
        ]
      }
    },
    {
      "type": "Feature",
      "properties": {
        "norad_id": 30954,
        "name": "FENGYUN 1C DEB",
        "group": "fengyun-1c-debris",
        "lat": -15.530095134305554,
        "lon": 79.24673101768359,
        "alt_km": 903.7595146325602,
        "timestamp": "2025-12-02T10:50:47.553821+00:00",
        "meta_object_name": "FENGYUN 1C DEB",
        "meta_object_id": "1999-025BAU",
        "meta_epoch": "2025-12-01T06:12:01.611936",
        "meta_mean_motion": 14.14831274,
        "meta_eccentricity": 0.0128438,
        "meta_inclination": 98.7126,
        "meta_ra_of_asc_node": 75.6391,
        "meta_arg_of_pericenter": 219.9274,
        "meta_mean_anomaly": 167.2889,
        "meta_ephemeris_type": 0,
        "meta_classification_type": "U",
        "meta_norad_cat_id": 30954,
        "meta_element_set_no": 999,
        "meta_rev_at_epoch": 96225,
        "meta_bstar": 0.0014542,
        "meta_mean_motion_dot": 2.995e-05,
        "meta_mean_motion_ddot": 0,
        "tle_line1": "1 30954U 99025BAU 25335.25835199  .00002995  00000+0  14542-2 0  9998",
        "tle_line2": "2 30954  98.7126  75.6391 0128438 219.9274 167.2889 14.14831274962257"
      },
      "geometry": {
        "type": "Point",
        "coordinates": [
          79.24673101768359,
          -15.530095134305554
        ]
      }
    },
    {
      "type": "Feature",
      "properties": {
        "norad_id": 30956,
        "name": "FENGYUN 1C DEB",
        "group": "fengyun-1c-debris",
        "lat": 5.770747264337507,
        "lon": 9.77622742561285,
        "alt_km": 811.7422783262746,
        "timestamp": "2025-12-02T10:50:47.553832+00:00",
        "meta_object_name": "FENGYUN 1C DEB",
        "meta_object_id": "1999-025BAW",
        "meta_epoch": "2025-12-02T00:46:05.015136",
        "meta_mean_motion": 14.14147869,
        "meta_eccentricity": 0.0049602,
        "meta_inclination": 98.761,
        "meta_ra_of_asc_node": 10.2575,
        "meta_arg_of_pericenter": 13.9486,
        "meta_mean_anomaly": 15.3987,
        "meta_ephemeris_type": 0,
        "meta_classification_type": "U",
        "meta_norad_cat_id": 30956,
        "meta_element_set_no": 999,
        "meta_rev_at_epoch": 96156,
        "meta_bstar": 0.0010026,
        "meta_mean_motion_dot": 1.889e-05,
        "meta_mean_motion_ddot": 0,
        "tle_line1": "1 30956U 99025BAW 25336.03200249  .00001889  00000+0  10026-2 0  9993",
        "tle_line2": "2 30956  98.7610  10.2575 0049602  13.9486  15.3987 14.14147869961563"
      },
      "geometry": {
        "type": "Point",
        "coordinates": [
          9.77622742561285,
          5.770747264337507
        ]
      }
    },
    {
      "type": "Feature",
      "properties": {
        "norad_id": 30960,
        "name": "FENGYUN 1C DEB",
        "group": "fengyun-1c-debris",
        "lat": 48.077103355412525,
        "lon": 81.26141813441437,
        "alt_km": 780.405129038666,
        "timestamp": "2025-12-02T10:50:47.553842+00:00",
        "meta_object_name": "FENGYUN 1C DEB",
        "meta_object_id": "1999-025BBA",
        "meta_epoch": "2025-11-29T12:11:57.283296",
        "meta_mean_motion": 14.66418259,
        "meta_eccentricity": 0.0197272,
        "meta_inclination": 98.9997,
        "meta_ra_of_asc_node": 88.1989,
        "meta_arg_of_pericenter": 202.6194,
        "meta_mean_anomaly": 156.6224,
        "meta_ephemeris_type": 0,
        "meta_classification_type": "U",
        "meta_norad_cat_id": 30960,
        "meta_element_set_no": 999,
        "meta_rev_at_epoch": 98504,
        "meta_bstar": 0.0014239534,
        "meta_mean_motion_dot": 0.00010481,
        "meta_mean_motion_ddot": 0,
        "tle_line1": "1 30960U 99025BBA 25333.50830189  .00010481  00000+0  14240-2 0  9999",
        "tle_line2": "2 30960  98.9997  88.1989 0197272 202.6194 156.6224 14.66418259985044"
      },
      "geometry": {
        "type": "Point",
        "coordinates": [
          81.26141813441437,
          48.077103355412525
        ]
      }
    },
    {
      "type": "Feature",
      "properties": {
        "norad_id": 30967,
        "name": "FENGYUN 1C DEB",
        "group": "fengyun-1c-debris",
        "lat": -80.22261892343143,
        "lon": -14.358411013983986,
        "alt_km": 643.0319160352283,
        "timestamp": "2025-12-02T10:50:47.553853+00:00",
        "meta_object_name": "FENGYUN 1C DEB",
        "meta_object_id": "1999-025BBH",
        "meta_epoch": "2025-12-01T07:12:54.811296",
        "meta_mean_motion": 14.56983654,
        "meta_eccentricity": 0.00949692,
        "meta_inclination": 98.7616,
        "meta_ra_of_asc_node": 280.9273,
        "meta_arg_of_pericenter": 275.1613,
        "meta_mean_anomaly": 83.875,
        "meta_ephemeris_type": 0,
        "meta_classification_type": "U",
        "meta_norad_cat_id": 30967,
        "meta_element_set_no": 999,
        "meta_rev_at_epoch": 98847,
        "meta_bstar": 0.0012117457,
        "meta_mean_motion_dot": 5.739e-05,
        "meta_mean_motion_ddot": 0,
        "tle_line1": "1 30967U 99025BBH 25335.30063439  .00005739  00000+0  12117-2 0  9993",
        "tle_line2": "2 30967  98.7616 280.9273 0094969 275.1613  83.8750 14.56983654988475"
      },
      "geometry": {
        "type": "Point",
        "coordinates": [
          -14.358411013983986,
          -80.22261892343143
        ]
      }
    }
  ]
}